{
  "type": "FeatureCollection",
  "features": [
    {
      "type": "Feature",
      "properties": {
        "norad_id": 34022,
        "name": "COSMOS 2251 DEB",
        "group": "cosmos-2251-debris",
        "lat": -26.01493828994042,
        "lon": 84.31569244675843,
        "alt_km": 773.5371394949971,
        "timestamp": "2025-12-20T14:38:02.362557+00:00",
        "meta_object_name": "COSMOS 2251 DEB",
        "meta_object_id": "1993-036HH",
        "meta_epoch": "2025-12-20T00:26:20.364864",
        "meta_mean_motion": 14.3897343,
        "meta_eccentricity": 0.00229555,
        "meta_inclination": 74.0541,
        "meta_ra_of_asc_node": 257.3839,
        "meta_arg_of_pericenter": 321.15,
        "meta_mean_anomaly": 63.4286,
        "meta_ephemeris_type": 0,
        "meta_classification_type": "U",
        "meta_norad_cat_id": 34022,
        "meta_element_set_no": 999,
        "meta_rev_at_epoch": 88300,
        "meta_bstar": 0.00015606353,
        "meta_mean_motion_dot": 4.56e-06,
        "meta_mean_motion_ddot": 0,
        "tle_line1": "1 34022U 93036HH  25354.01829126  .00000456  00000+0  15606-3 0  9995",
        "tle_line2": "2 34022  74.0541 257.3839 0022955 321.1500  63.4286 14.38973430883006"
      },
      "geometry": {
        "type": "Point",
        "coordinates": [
          84.31569244675843,
          -26.01493828994042
        ]
      }
    },
    {
      "type": "Feature",
      "properties": {
        "norad_id": 34023,
        "name": "COSMOS 2251 DEB",
        "group": "cosmos-2251-debris",
        "lat": 7.6360103924621505,
        "lon": 54.97817201251274,
        "alt_km": 770.7087297566168,
        "timestamp": "2025-12-20T14:38:02.362567+00:00",
        "meta_object_name": "COSMOS 2251 DEB",
        "meta_object_id": "1993-036HJ",
        "meta_epoch": "2025-12-20T02:56:04.000992",
        "meta_mean_motion": 14.40575126,
        "meta_eccentricity": 0.00187493,
        "meta_inclination": 74.0244,
        "meta_ra_of_asc_node": 238.0811,
        "meta_arg_of_pericenter": 332.6538,
        "meta_mean_anomaly": 192.2716,
        "meta_ephemeris_type": 0,
        "meta_classification_type": "U",
        "meta_norad_cat_id": 34023,
        "meta_element_set_no": 999,
        "meta_rev_at_epoch": 88320,
        "meta_bstar": 0.00020519752,
        "meta_mean_motion_dot": 6.29e-06,
        "meta_mean_motion_ddot": 0,
        "tle_line1": "1 34023U 93036HJ  25354.12226853  .00000629  00000+0  20520-3 0  9999",
        "tle_line2": "2 34023  74.0244 238.0811 0018749 332.6538 192.2716 14.40575126883201"
      },
      "geometry": {
        "type": "Point",
        "coordinates": [
          54.97817201251274,
          7.6360103924621505
        ]
      }
    },
    {
      "type": "Feature",
      "properties": {
        "norad_id": 34024,
        "name": "COSMOS 2251 DEB",
        "group": "cosmos-2251-debris",
        "lat": 33.679943920849205,
        "lon": -47.44180928805205,
        "alt_km": 760.3668682498037,
        "timestamp": "2025-12-20T14:38:02.362577+00:00",
        "meta_object_name": "COSMOS 2251 DEB",
        "meta_object_id": "1993-036HK",
        "meta_epoch": "2025-12-19T23:44:02.418432",
        "meta_mean_motion": 14.35403555,
        "meta_eccentricity": 0.0021377,
        "meta_inclination": 74.0467,
        "meta_ra_of_asc_node": 302.7063,
        "meta_arg_of_pericenter": 351.8484,
        "meta_mean_anomaly": 76.4599,
        "meta_ephemeris_type": 0,
        "meta_classification_type": "U",
        "meta_norad_cat_id": 34024,
        "meta_element_set_no": 999,
        "meta_rev_at_epoch": 88128,
        "meta_bstar": 0.00012564,
        "meta_mean_motion_dot": 3.35e-06,
        "meta_mean_motion_ddot": 0,
        "tle_line1": "1 34024U 93036HK  25353.98891688  .00000335  00000+0  12564-3 0  9990",
        "tle_line2": "2 34024  74.0467 302.7063 0021377 351.8484  76.4599 14.35403555881289"
      },
      "geometry": {
        "type": "Point",
        "coordinates": [
          -47.44180928805205,
          33.679943920849205
        ]
      }
    },
    {
      "type": "Feature",
      "properties": {
        "norad_id": 34026,
        "name": "COSMOS 2251 DEB",
        "group": "cosmos-2251-debris",
        "lat": 73.26268216527087,
        "lon": 68.55607271221156,
        "alt_km": 1040.3309132711738,
        "timestamp": "2025-12-20T14:38:02.362587+00:00",
        "meta_object_name": "COSMOS 2251 DEB",
        "meta_object_id": "1993-036HM",
        "meta_epoch": "2025-12-20T05:26:54.599712",
        "meta_mean_motion": 13.6531797,
        "meta_eccentricity": 0.03499346,
        "meta_inclination": 73.7668,
        "meta_ra_of_asc_node": 324.8345,
        "meta_arg_of_pericenter": 193.7119,
        "meta_mean_anomaly": 183.8806,
        "meta_ephemeris_type": 0,
        "meta_classification_type": "U",
        "meta_norad_cat_id": 34026,
        "meta_element_set_no": 999,
        "meta_rev_at_epoch": 83634,
        "meta_bstar": 0.00035309773,
        "meta_mean_motion_dot": 4.13e-06,
        "meta_mean_motion_ddot": 0,
        "tle_line1": "1 34026U 93036HM  25354.22702083  .00000413  00000+0  35310-3 0  9991",
        "tle_line2": "2 34026  73.7668 324.8345 0349934 193.7119 183.8806 13.65317970836346"
      },
      "geometry": {
        "type": "Point",
        "coordinates": [
          68.55607271221156,
          73.26268216527087
        ]
      }
    },
    {
      "type": "Feature",
      "properties": {
        "norad_id": 34028,
        "name": "COSMOS 2251 DEB",
        "group": "cosmos-2251-debris",
        "lat": -65.14568804347208,
        "lon": -63.43542974340845,
        "alt_km": 1599.7717615913562,
        "timestamp": "2025-12-20T14:38:02.362598+00:00",
        "meta_object_name": "COSMOS 2251 DEB",
        "meta_object_id": "1993-036HP",
        "meta_epoch": "2025-12-20T05:59:55.249728",
        "meta_mean_motion": 13.20628584,
        "meta_eccentricity": 0.05435372,
        "meta_inclination": 73.8834,
        "meta_ra_of_asc_node": 335.736,
        "meta_arg_of_pericenter": 112.291,
        "meta_mean_anomaly": 266.6449,
        "meta_ephemeris_type": 0,
        "meta_classification_type": "U",
        "meta_norad_cat_id": 34028,
        "meta_element_set_no": 999,
        "meta_rev_at_epoch": 81107,
        "meta_bstar": 0.00048441417,
        "meta_mean_motion_dot": 4.11e-06,
        "meta_mean_motion_ddot": 0,
        "tle_line1": "1 34028U 93036HP  25354.24994502  .00000411  00000+0  48441-3 0  9991",
        "tle_line2": "2 34028  73.8834 335.7360 0543537 112.2910 266.6449 13.20628584811075"
      },
      "geometry": {
        "type": "Point",
        "coordinates": [
          -63.43542974340845,
          -65.14568804347208
        ]
      }
    },
    {
      "type": "Feature",
      "properties": {
        "norad_id": 34031,
        "name": "COSMOS 2251 DEB",
        "group": "cosmos-2251-debris",
        "lat": -10.314344984961158,
        "lon": -56.33241045268162,
        "alt_km": 687.2739084414734,
        "timestamp": "2025-12-20T14:38:02.362609+00:00",
        "meta_object_name": "COSMOS 2251 DEB",
        "meta_object_id": "1993-036HS",
        "meta_epoch": "2025-12-19T03:29:25.717056",
        "meta_mean_motion": 14.59757227,
        "meta_eccentricity": 0.00229414,
        "meta_inclination": 74.0127,
        "meta_ra_of_asc_node": 123.4727,
        "meta_arg_of_pericenter": 243.4611,
        "meta_mean_anomaly": 175.3292,
        "meta_ephemeris_type": 0,
        "meta_classification_type": "U",
        "meta_norad_cat_id": 34031,
        "meta_element_set_no": 999,
        "meta_rev_at_epoch": 88659,
        "meta_bstar": 0.00097665147,
        "meta_mean_motion_dot": 4.652e-05,
        "meta_mean_motion_ddot": 0,
        "tle_line1": "1 34031U 93036HS  25353.14543654  .00004652  00000+0  97665-3 0  9994",
        "tle_line2": "2 34031  74.0127 123.4727 0022941 243.4611 175.3292 14.59757227886593"
      },
      "geometry": {
        "type": "Point",
        "coordinates": [
          -56.33241045268162,
          -10.314344984961158
        ]
      }
    },
    {
      "type": "Feature",
      "properties": {
        "norad_id": 34035,
        "name": "COSMOS 2251 DEB",
        "group": "cosmos-2251-debris",
        "lat": 42.88174231889547,
        "lon": 138.95263659436358,
        "alt_km": 745.3405172183066,
        "timestamp": "2025-12-20T14:38:02.362619+00:00",
        "meta_object_name": "COSMOS 2251 DEB",
        "meta_object_id": "1993-036HW",
        "meta_epoch": "2025-12-19T23:16:23.806272",
        "meta_mean_motion": 14.52026861,
        "meta_eccentricity": 0.00451394,
        "meta_inclination": 74.0654,
        "meta_ra_of_asc_node": 335.5416,
        "meta_arg_of_pericenter": 335.5807,
        "meta_mean_anomaly": 54.8592,
        "meta_ephemeris_type": 0,
        "meta_classification_type": "U",
        "meta_norad_cat_id": 34035,
        "meta_element_set_no": 999,
        "meta_rev_at_epoch": 88071,
        "meta_bstar": 0.0011449488,
        "meta_mean_motion_dot": 4.664e-05,
        "meta_mean_motion_ddot": 0,
        "tle_line1": "1 34035U 93036HW  25353.96971998  .00004664  00000+0  11449-2 0  9992",
        "tle_line2": "2 34035  74.0654 335.5416 0045139 335.5807  54.8592 14.52026861880715"
      },
      "geometry": {
        "type": "Point",
        "coordinates": [
          138.95263659436358,
          42.88174231889547
        ]
      }
    }
  ]
}